<?xml version='1.0' encoding='utf-8'?>
<q:quakeml xmlns="http://quakeml.org/xmlns/bed/1.2" xmlns:q="http://quakeml.org/xmlns/quakeml/1.2">
  <eventParameters publicID="smi:local/093e0927-9026-40bb-833e-b4859e662111">
    <event publicID="smi:local/Event/20200331000">
      <preferredOriginID>smi:local/Origin/20200331000_1</preferredOriginID>
      <origin publicID="smi:local/Origin/20200331000_1">
        <time>
          <value>2020-03-31T23:54:31.493317Z</value>
        </time>
        <latitude>
          <value>45.83</value>
        </latitude>
        <longitude>
          <value>-110.133</value>
        </longitude>
        <depth>
          <value>5000.0</value>
        </depth>
        <arrival publicID="smi:local/Arrival/20200331/32">
          <pickID>smi:local/Pick/20200331/32</pickID>
          <phase>S</phase>
          <timeWeight>1.0</timeWeight>
        </arrival>
        <arrival publicID="smi:local/Arrival/20200331/4011">
          <pickID>smi:local/Pick/20200331/4011</pickID>
          <phase>P</phase>
          <timeWeight>1.0</timeWeight>
        </arrival>
        <arrival publicID="smi:local/Arrival/20200331/4014">
          <pickID>smi:local/Pick/20200331/4014</pickID>
          <phase>S</phase>
          <timeWeight>1.0</timeWeight>
        </arrival>
        <arrival publicID="smi:local/Arrival/20200331/4231">
          <pickID>smi:local/Pick/20200331/4231</pickID>
          <phase>P</phase>
          <timeWeight>1.0</timeWeight>
        </arrival>
        <arrival publicID="smi:local/Arrival/20200331/4232">
          <pickID>smi:local/Pick/20200331/4232</pickID>
          <phase>S</phase>
          <timeWeight>1.0</timeWeight>
        </arrival>
        <arrival publicID="smi:local/Arrival/20200331/5735">
          <pickID>smi:local/Pick/20200331/5735</pickID>
          <phase>P</phase>
          <timeWeight>1.0</timeWeight>
        </arrival>
        <arrival publicID="smi:local/Arrival/20200331/6822">
          <pickID>smi:local/Pick/20200331/6822</pickID>
          <phase>P</phase>
          <timeWeight>1.0</timeWeight>
        </arrival>
        <arrival publicID="smi:local/Arrival/20200331/6824">
          <pickID>smi:local/Pick/20200331/6824</pickID>
          <phase>S</phase>
          <timeWeight>1.0</timeWeight>
        </arrival>
        <arrival publicID="smi:local/Arrival/20200331/9384">
          <pickID>smi:local/Pick/20200331/9384</pickID>
          <phase>P</phase>
          <timeWeight>1.0</timeWeight>
        </arrival>
        <arrival publicID="smi:local/Arrival/20200331/9386">
          <pickID>smi:local/Pick/20200331/9386</pickID>
          <phase>S</phase>
          <timeWeight>1.0</timeWeight>
        </arrival>
        <arrival publicID="smi:local/Arrival/20200331/10055">
          <pickID>smi:local/Pick/20200331/10055</pickID>
          <phase>P</phase>
          <timeWeight>1.0</timeWeight>
        </arrival>
        <arrival publicID="smi:local/Arrival/20200331/10060">
          <pickID>smi:local/Pick/20200331/10060</pickID>
          <phase>S</phase>
          <timeWeight>1.0</timeWeight>
        </arrival>
      </origin>
      <pick publicID="smi:local/Pick/20200331/32">
        <time>
          <value>2020-03-31T23:54:58.700000Z</value>
        </time>
        <waveformID networkCode="MB" stationCode="SXM" locationCode="" channelCode="EHZ"></waveformID>
        <phaseHint>S</phaseHint>
        <evaluationMode>automatic</evaluationMode>
      </pick>
      <pick publicID="smi:local/Pick/20200331/4011">
        <time>
          <value>2020-03-31T23:55:04.160000Z</value>
        </time>
        <waveformID networkCode="WY" stationCode="MCID" locationCode="" channelCode="EHZ"></waveformID>
        <phaseHint>P</phaseHint>
        <evaluationMode>automatic</evaluationMode>
      </pick>
      <pick publicID="smi:local/Pick/20200331/4014">
        <time>
          <value>2020-03-31T23:55:27.810000Z</value>
        </time>
        <waveformID networkCode="WY" stationCode="MCID" locationCode="" channelCode="EHZ"></waveformID>
        <phaseHint>S</phaseHint>
        <evaluationMode>automatic</evaluationMode>
      </pick>
      <pick publicID="smi:local/Pick/20200331/4231">
        <time>
          <value>2020-03-31T23:55:12.650000Z</value>
        </time>
        <waveformID networkCode="MB" stationCode="CHMT" locationCode="" channelCode="EHZ"></waveformID>
        <phaseHint>P</phaseHint>
        <evaluationMode>automatic</evaluationMode>
      </pick>
      <pick publicID="smi:local/Pick/20200331/4232">
        <time>
          <value>2020-03-31T23:55:42.790000Z</value>
        </time>
        <waveformID networkCode="MB" stationCode="CHMT" locationCode="" channelCode="EHZ"></waveformID>
        <phaseHint>S</phaseHint>
        <evaluationMode>automatic</evaluationMode>
      </pick>
      <pick publicID="smi:local/Pick/20200331/5735">
        <time>
          <value>2020-03-31T23:54:56.630000Z</value>
        </time>
        <waveformID networkCode="WY" stationCode="YHB" locationCode="" channelCode="EHZ"></waveformID>
        <phaseHint>P</phaseHint>
        <evaluationMode>automatic</evaluationMode>
      </pick>
      <pick publicID="smi:local/Pick/20200331/6822">
        <time>
          <value>2020-03-31T23:54:55.340000Z</value>
        </time>
        <waveformID networkCode="MB" stationCode="LCCM" locationCode="" channelCode="EHZ"></waveformID>
        <phaseHint>P</phaseHint>
        <evaluationMode>automatic</evaluationMode>
      </pick>
      <pick publicID="smi:local/Pick/20200331/6824">
        <time>
          <value>2020-03-31T23:55:12.770000Z</value>
        </time>
        <waveformID networkCode="MB" stationCode="LCCM" locationCode="" channelCode="EHZ"></waveformID>
        <phaseHint>S</phaseHint>
        <evaluationMode>automatic</evaluationMode>
      </pick>
      <pick publicID="smi:local/Pick/20200331/9384">
        <time>
          <value>2020-03-31T23:54:56.870000Z</value>
        </time>
        <waveformID networkCode="WY" stationCode="YWB" locationCode="" channelCode="EHZ"></waveformID>
        <phaseHint>P</phaseHint>
        <evaluationMode>automatic</evaluationMode>
      </pick>
      <pick publicID="smi:local/Pick/20200331/9386">
        <time>
          <value>2020-03-31T23:55:16.400000Z</value>
        </time>
        <waveformID networkCode="WY" stationCode="YWB" locationCode="" channelCode="EHZ"></waveformID>
        <phaseHint>S</phaseHint>
        <evaluationMode>automatic</evaluationMode>
      </pick>
      <pick publicID="smi:local/Pick/20200331/10055">
        <time>
          <value>2020-03-31T23:54:59.440000Z</value>
        </time>
        <waveformID networkCode="MB" stationCode="BGMT" locationCode="" channelCode="EH2"></waveformID>
        <phaseHint>P</phaseHint>
        <evaluationMode>automatic</evaluationMode>
      </pick>
      <pick publicID="smi:local/Pick/20200331/10060">
        <time>
          <value>2020-03-31T23:55:20.570000Z</value>
        </time>
        <waveformID networkCode="MB" stationCode="BGMT" locationCode="" channelCode="EHZ"></waveformID>
        <phaseHint>S</phaseHint>
        <evaluationMode>automatic</evaluationMode>
      </pick>
    </event>
    <event publicID="smi:local/Event/20200331001">
      <preferredOriginID>smi:local/Origin/20200331001_1</preferredOriginID>
      <origin publicID="smi:local/Origin/20200331001_1">
        <time>
          <value>2020-03-31T23:56:16.233250Z</value>
        </time>
        <latitude>
          <value>45.864</value>
        </latitude>
        <longitude>
          <value>-113.745</value>
        </longitude>
        <depth>
          <value>5000.0</value>
        </depth>
        <arrival publicID="smi:local/Arrival/20200331/3051">
          <pickID>smi:local/Pick/20200331/3051</pickID>
          <phase>P</phase>
          <timeWeight>1.0</timeWeight>
        </arrival>
        <arrival publicID="smi:local/Arrival/20200331/3054">
          <pickID>smi:local/Pick/20200331/3054</pickID>
          <phase>S</phase>
          <timeWeight>1.0</timeWeight>
        </arrival>
        <arrival publicID="smi:local/Arrival/20200331/3710">
          <pickID>smi:local/Pick/20200331/3710</pickID>
          <phase>P</phase>
          <timeWeight>1.0</timeWeight>
        </arrival>
        <arrival publicID="smi:local/Arrival/20200331/3711">
          <pickID>smi:local/Pick/20200331/3711</pickID>
          <phase>S</phase>
          <timeWeight>1.0</timeWeight>
        </arrival>
        <arrival publicID="smi:local/Arrival/20200331/10550">
          <pickID>smi:local/Pick/20200331/10550</pickID>
          <phase>P</phase>
          <timeWeight>1.0</timeWeight>
        </arrival>
        <arrival publicID="smi:local/Arrival/20200331/10558">
          <pickID>smi:local/Pick/20200331/10558</pickID>
          <phase>S</phase>
          <timeWeight>1.0</timeWeight>
        </arrival>
        <arrival publicID="smi:local/Arrival/20200331/13359">
          <pickID>smi:local/Pick/20200331/13359</pickID>
          <phase>P</phase>
          <timeWeight>1.0</timeWeight>
        </arrival>
        <arrival publicID="smi:local/Arrival/20200331/13360">
          <pickID>smi:local/Pick/20200331/13360</pickID>
          <phase>S</phase>
          <timeWeight>1.0</timeWeight>
        </arrival>
      </origin>
      <pick publicID="smi:local/Pick/20200331/3051">
        <time>
          <value>2020-03-31T23:56:44.540000Z</value>
        </time>
        <waveformID networkCode="MB" stationCode="HRY" locationCode="" channelCode="EHZ"></waveformID>
        <phaseHint>P</phaseHint>
        <evaluationMode>automatic</evaluationMode>
      </pick>
      <pick publicID="smi:local/Pick/20200331/3054">
        <time>
          <value>2020-03-31T23:57:06.520000Z</value>
        </time>
        <waveformID networkCode="MB" stationCode="HRY" locationCode="" channelCode="EHZ"></waveformID>
        <phaseHint>S</phaseHint>
        <evaluationMode>automatic</evaluationMode>
      </pick>
      <pick publicID="smi:local/Pick/20200331/3710">
        <time>
          <value>2020-03-31T23:56:27.080000Z</value>
        </time>
        <waveformID networkCode="MB" stationCode="BPMT" locationCode="" channelCode="EHZ"></waveformID>
        <phaseHint>P</phaseHint>
        <evaluationMode>automatic</evaluationMode>
      </pick>
      <pick publicID="smi:local/Pick/20200331/3711">
        <time>
          <value>2020-03-31T23:56:34.860000Z</value>
        </time>
        <waveformID networkCode="MB" stationCode="BPMT" locationCode="" channelCode="EHZ"></waveformID>
        <phaseHint>S</phaseHint>
        <evaluationMode>automatic</evaluationMode>
      </pick>
      <pick publicID="smi:local/Pick/20200331/10550">
        <time>
          <value>2020-03-31T23:56:41.780000Z</value>
        </time>
        <waveformID networkCode="MB" stationCode="ALMT" locationCode="" channelCode="EHZ"></waveformID>
        <phaseHint>P</phaseHint>
        <evaluationMode>automatic</evaluationMode>
      </pick>
      <pick publicID="smi:local/Pick/20200331/10558">
        <time>
          <value>2020-03-31T23:57:00.710000Z</value>
        </time>
        <waveformID networkCode="MB" stationCode="ALMT" locationCode="" channelCode="EHZ"></waveformID>
        <phaseHint>S</phaseHint>
        <evaluationMode>automatic</evaluationMode>
      </pick>
      <pick publicID="smi:local/Pick/20200331/13359">
        <time>
          <value>2020-03-31T23:56:40.250000Z</value>
        </time>
        <waveformID networkCode="MB" stationCode="MCMT" locationCode="" channelCode="EH2"></waveformID>
        <phaseHint>P</phaseHint>
        <evaluationMode>automatic</evaluationMode>
      </pick>
      <pick publicID="smi:local/Pick/20200331/13360">
        <time>
          <value>2020-03-31T23:56:57.730000Z</value>
        </time>
        <waveformID networkCode="MB" stationCode="MCMT" locationCode="" channelCode="EHZ"></waveformID>
        <phaseHint>S</phaseHint>
        <evaluationMode>automatic</evaluationMode>
      </pick>
    </event>
    <event publicID="smi:local/Event/20200331002">
      <preferredOriginID>smi:local/Origin/20200331002_1</preferredOriginID>
      <origin publicID="smi:local/Origin/20200331002_1">
        <time>
          <value>2020-03-31T23:56:16.236115Z</value>
        </time>
        <latitude>
          <value>47.51</value>
        </latitude>
        <longitude>
          <value>-113.548</value>
        </longitude>
        <depth>
          <value>5000.0</value>
        </depth>
        <arrival publicID="smi:local/Arrival/20200331/3050">
          <pickID>smi:local/Pick/20200331/3050</pickID>
          <phase>P</phase>
          <timeWeight>1.0</timeWeight>
        </arrival>
        <arrival publicID="smi:local/Arrival/20200331/3053">
          <pickID>smi:local/Pick/20200331/3053</pickID>
          <phase>S</phase>
          <timeWeight>1.0</timeWeight>
        </arrival>
        <arrival publicID="smi:local/Arrival/20200331/3521">
          <pickID>smi:local/Pick/20200331/3521</pickID>
          <phase>P</phase>
          <timeWeight>1.0</timeWeight>
        </arrival>
        <arrival publicID="smi:local/Arrival/20200331/3524">
          <pickID>smi:local/Pick/20200331/3524</pickID>
          <phase>S</phase>
          <timeWeight>1.0</timeWeight>
        </arrival>
        <arrival publicID="smi:local/Arrival/20200331/5163">
          <pickID>smi:local/Pick/20200331/5163</pickID>
          <phase>P</phase>
          <timeWeight>1.0</timeWeight>
        </arrival>
        <arrival publicID="smi:local/Arrival/20200331/5164">
          <pickID>smi:local/Pick/20200331/5164</pickID>
          <phase>S</phase>
          <timeWeight>1.0</timeWeight>
        </arrival>
        <arrival publicID="smi:local/Arrival/20200331/5880">
          <pickID>smi:local/Pick/20200331/5880</pickID>
          <phase>P</phase>
          <timeWeight>1.0</timeWeight>
        </arrival>
        <arrival publicID="smi:local/Arrival/20200331/10548">
          <pickID>smi:local/Pick/20200331/10548</pickID>
          <phase>P</phase>
          <timeWeight>1.0</timeWeight>
        </arrival>
        <arrival publicID="smi:local/Arrival/20200331/10551">
          <pickID>smi:local/Pick/20200331/10551</pickID>
          <phase>S</phase>
          <timeWeight>1.0</timeWeight>
        </arrival>
      </origin>
      <pick publicID="smi:local/Pick/20200331/3050">
        <time>
          <value>2020-03-31T23:56:42.740000Z</value>
        </time>
        <waveformID networkCode="MB" stationCode="HRY" locationCode="" channelCode="EHZ"></waveformID>
        <phaseHint>P</phaseHint>
        <evaluationMode>automatic</evaluationMode>
      </pick>
      <pick publicID="smi:local/Pick/20200331/3053">
        <time>
          <value>2020-03-31T23:57:02.350000Z</value>
        </time>
        <waveformID networkCode="MB" stationCode="HRY" locationCode="" channelCode="EHZ"></waveformID>
        <phaseHint>S</phaseHint>
        <evaluationMode>automatic</evaluationMode>
      </pick>
      <pick publicID="smi:local/Pick/20200331/3521">
        <time>
          <value>2020-03-31T23:56:37.260000Z</value>
        </time>
        <waveformID networkCode="MB" stationCode="VCMT" locationCode="" channelCode="EHZ"></waveformID>
        <phaseHint>P</phaseHint>
        <evaluationMode>automatic</evaluationMode>
      </pick>
      <pick publicID="smi:local/Pick/20200331/3524">
        <time>
          <value>2020-03-31T23:56:52.940000Z</value>
        </time>
        <waveformID networkCode="MB" stationCode="VCMT" locationCode="" channelCode="EHZ"></waveformID>
        <phaseHint>S</phaseHint>
        <evaluationMode>automatic</evaluationMode>
      </pick>
      <pick publicID="smi:local/Pick/20200331/5163">
        <time>
          <value>2020-03-31T23:56:20.680000Z</value>
        </time>
        <waveformID networkCode="MB" stationCode="SLMT" locationCode="" channelCode="EHZ"></waveformID>
        <phaseHint>P</phaseHint>
        <evaluationMode>automatic</evaluationMode>
      </pick>
      <pick publicID="smi:local/Pick/20200331/5164">
        <time>
          <value>2020-03-31T23:56:25.170000Z</value>
        </time>
        <waveformID networkCode="MB" stationCode="SLMT" locationCode="" channelCode="EHZ"></waveformID>
        <phaseHint>S</phaseHint>
        <evaluationMode>automatic</evaluationMode>
      </pick>
      <pick publicID="smi:local/Pick/20200331/5880">
        <time>
          <value>2020-03-31T23:56:27.970000Z</value>
        </time>
        <waveformID networkCode="MB" stationCode="FBMT" locationCode="" channelCode="EHZ"></waveformID>
        <phaseHint>P</phaseHint>
        <evaluationMode>automatic</evaluationMode>
      </pick>
      <pick publicID="smi:local/Pick/20200331/10548">
        <time>
          <value>2020-03-31T23:56:32.010000Z</value>
        </time>
        <waveformID networkCode="MB" stationCode="ALMT" locationCode="" channelCode="EHZ"></waveformID>
        <phaseHint>P</phaseHint>
        <evaluationMode>automatic</evaluationMode>
      </pick>
      <pick publicID="smi:local/Pick/20200331/10551">
        <time>
          <value>2020-03-31T23:56:42.670000Z</value>
        </time>
        <waveformID networkCode="MB" stationCode="ALMT" locationCode="" channelCode="EHZ"></waveformID>
        <phaseHint>S</phaseHint>
        <evaluationMode>automatic</evaluationMode>
      </pick>
    </event>
    <event publicID="smi:local/Event/20200331003">
      <preferredOriginID>smi:local/Origin/20200331003_1</preferredOriginID>
      <origin publicID="smi:local/Origin/20200331003_1">
        <time>
          <value>2020-03-31T23:55:43.449626Z</value>
        </time>
        <latitude>
          <value>46.264</value>
        </latitude>
        <longitude>
          <value>-115.278</value>
        </longitude>
        <depth>
          <value>5000.0</value>
        </depth>
        <arrival publicID="smi:local/Arrival/20200331/4234">
          <pickID>smi:local/Pick/20200331/4234</pickID>
          <phase>P</phase>
          <timeWeight>1.0</timeWeight>
        </arrival>
        <arrival publicID="smi:local/Arrival/20200331/4235">
          <pickID>smi:local/Pick/20200331/4235</pickID>
          <phase>S</phase>
          <timeWeight>1.0</timeWeight>
        </arrival>
        <arrival publicID="smi:local/Arrival/20200331/5879">
          <pickID>smi:local/Pick/20200331/5879</pickID>
          <phase>P</phase>
          <timeWeight>1.0</timeWeight>
        </arrival>
        <arrival publicID="smi:local/Arrival/20200331/6826">
          <pickID>smi:local/Pick/20200331/6826</pickID>
          <phase>P</phase>
          <timeWeight>1.0</timeWeight>
        </arrival>
        <arrival publicID="smi:local/Arrival/20200331/6827">
          <pickID>smi:local/Pick/20200331/6827</pickID>
          <phase>S</phase>
          <timeWeight>1.0</timeWeight>
        </arrival>
        <arrival publicID="smi:local/Arrival/20200331/10064">
          <pickID>smi:local/Pick/20200331/10064</pickID>
          <phase>P</phase>
          <timeWeight>1.0</timeWeight>
        </arrival>
        <arrival publicID="smi:local/Arrival/20200331/10066">
          <pickID>smi:local/Pick/20200331/10066</pickID>
          <phase>S</phase>
          <timeWeight>1.0</timeWeight>
        </arrival>
        <arrival publicID="smi:local/Arrival/20200331/10542">
          <pickID>smi:local/Pick/20200331/10542</pickID>
          <phase>P</phase>
          <timeWeight>1.0</timeWeight>
        </arrival>
        <arrival publicID="smi:local/Arrival/20200331/10545">
          <pickID>smi:local/Pick/20200331/10545</pickID>
          <phase>S</phase>
          <timeWeight>1.0</timeWeight>
        </arrival>
      </origin>
      <pick publicID="smi:local/Pick/20200331/4234">
        <time>
          <value>2020-03-31T23:56:11.520000Z</value>
        </time>
        <waveformID networkCode="MB" stationCode="CHMT" locationCode="" channelCode="EHZ"></waveformID>
